[{"OBJECT_NAME":"STARLINK-30505","OBJECT_ID":"2023-151J","EPOCH":"2026-03-08T02:51:45.258912","MEAN_MOTION":15.26785781,"ECCENTRICITY":0.00016319,"INCLINATION":43.0004,"RA_OF_ASC_NODE":345.0806,"ARG_OF_PERICENTER":252.0236,"MEAN_ANOMALY":108.0438,"EPHEMERIS_TYPE":0,"CLASSIFICATION_TYPE":"U","NORAD_CAT_ID":57972,"ELEMENT_SET_NO":999,"REV_AT_EPOCH":13552,"BSTAR":0.0013307698,"MEAN_MOTION_DOT":0.00035659,"MEAN_MOTION_DDOT":0},{"OBJECT_NAME":"KUIPER-00209","OBJECT_ID":"2026-030N","EPOCH":"2026-03-09T14:49:43.575744","MEAN_MOTION":15.3016195,"ECCENTRICITY":0.0012191,"INCLINATION":51.8838,"RA_OF_ASC_NODE":220.0775,"ARG_OF_PERICENTER":59.1967,"MEAN_ANOMALY":301.0215,"EPHEMERIS_TYPE":0,"CLASSIFICATION_TYPE":"U","NORAD_CAT_ID":67776,"ELEMENT_SET_NO":999,"REV_AT_EPOCH":507,"BSTAR":0.0011963,"MEAN_MOTION_DOT":0.00035298,"MEAN_MOTION_DDOT":0}]
